{
  "norad_id": 52346,
  "name": "STARLINK-3812",
  "history": [
    {
      "epoch": "2026-03-28T18:51:00.986976Z",
      "apogee_km": 540.653861397529,
      "perigee_km": 538.7968304293918,
      "latitude_deg": -3.119573173008079e-05,
      "longitude_deg": 4.452175271258112,
      "height_km": 540.49153949878,
      "semi_major_axis_km": 6917.86234591346,
      "eccentricity": 0.00013422,
      "inclination_deg": 53.2161,
      "raan_deg": 113.4072,
      "arg_perigee_deg": 81.9874,
      "mean_anomaly_deg": 278.127,
      "mean_motion_rev_day": 15.08845903
    },
    {
      "epoch": "2026-03-29T04:23:19.851360Z",
      "apogee_km": 540.6624977442661,
      "perigee_km": 538.7946740360767,
      "latitude_deg": 9.941530557245026e-06,
      "longitude_deg": -140.80293102299817,
      "height_km": 540.5230830505062,
      "semi_major_axis_km": 6917.865585890171,
      "eccentricity": 0.000135,
      "inclination_deg": 53.2158,
      "raan_deg": 111.6224,
      "arg_perigee_deg": 83.7874,
      "mean_anomaly_deg": 276.3272,
      "mean_motion_rev_day": 15.08844843
    }
  ]
}